0 IRIDIUM 82
1 25467U 98051A   13282.43199646  .00000382  00000-0  12931-3 0  5993
2 25467 086.3989 224.9319 0002066 086.0311 274.1121 14.34221750793581
0 IRIDIUM 82
1 25467U 98051A   13282.50176478  .00000376  00000-0  12709-3 0  6008
2 25467 086.3990 224.9028 0002067 086.1965 273.9467 14.34221736793592
0 IRIDIUM 82
1 25467U 98051A   13283.40875683  .00000357  00000-0  12044-3 0  6014
2 25467 086.3994 224.5236 0002080 086.0902 274.0531 14.34215904793727
0 IRIDIUM 82
1 25467U 98051A   13284.38551779  .00000306  00000-0  10235-3 0  6024
2 25467 086.3997 224.1158 0002038 086.2931 273.8498 14.34216075793860
0 IRIDIUM 82
1 25467U 98051A   13285.43204669  .00000343  00000-0  11533-3 0  6038
2 25467 086.3999 223.6786 0001989 086.3321 273.8102 14.34217109794010
0 IRIDIUM 82
1 25467U 98051A   13285.43204669  .00000343  00000-0  11533-3 0  6049
2 25467 086.3999 223.6786 0001989 086.3321 273.8102 14.34217109794010
0 IRIDIUM 82
1 25467U 98051A   13286.40880632  .00000365  00000-0  12340-3 0  6059
2 25467 086.4001 223.2707 0001953 086.8603 273.2816 14.34217625794157
0 IRIDIUM 82
1 25467U 98051A   13287.38556561  .00000413  00000-0  14050-3 0  6063
2 25467 086.4003 222.8627 0001924 087.2680 272.8736 14.34218350794290
0 IRIDIUM 82
1 25467U 98051A   13288.36232419  .00000575  00000-0  19832-3 0  6078
2 25467 086.4005 222.4548 0001890 087.5472 272.5941 14.34219809794435
0 IRIDIUM 82
1 25467U 98051A   13289.40885039  .00000448  00000-0  15282-3 0  6081
2 25467 086.4006 222.0178 0001843 088.1505 271.9902 14.34221292794588
0 IRIDIUM 82
1 25467U 98051A   13289.40885039  .00000448  00000-0  15282-3 0  6092
2 25467 086.4006 222.0178 0001843 088.1505 271.9902 14.34221292794588
0 IRIDIUM 82
1 25467U 98051A   13290.38560733  .00000509  00000-0  17482-3 0  6106
2 25467 086.4006 221.6100 0001821 088.6782 271.4623 14.34222060794721
0 IRIDIUM 82
1 25467U 98051A   13291.36236357  .00000511  00000-0  17555-3 0  6112
2 25467 086.4007 221.2023 0001793 089.2013 270.9388 14.34223000794866
0 IRIDIUM 82
1 25467U 98051A   13291.92050973  .00000518  00000-0  17778-3 0  6127
2 25467 086.4007 220.9693 0001785 089.8343 270.3057 14.34222974794943
0 IRIDIUM 82
1 25467U 98051A   13293.10657495  .00000548  00000-0  18877-3 0  6136
2 25467 086.4009 220.4741 0001797 089.4191 270.7211 14.34218897795119
0 IRIDIUM 82
1 25467U 98051A   13293.38564887  .00000236  00000-0  77146-4 0  6148
2 25467 086.4010 220.3576 0001785 090.3975 269.7425 14.34218739795158
0 IRIDIUM 82
1 25467U 98051A   13294.36240737  .00000498  00000-0  17070-3 0  6152
2 25467 086.4010 219.9499 0001767 090.9221 269.2177 14.34220523795294
0 IRIDIUM 82
1 25467U 98051A   13295.40893305  .00000577  00000-0  19907-3 0  6163
2 25467 086.4010 219.5131 0001736 091.9356 268.2038 14.34222020795445
